OBJECT_NAME,OBJECT_ID,EPOCH,MEAN_MOTION,ECCENTRICITY,INCLINATION,RA_OF_ASC_NODE,ARG_OF_PERICENTER,MEAN_ANOMALY,EPHEMERIS_TYPE,CLASSIFICATION_TYPE,NORAD_CAT_ID,ELEMENT_SET_NO,REV_AT_EPOCH,BSTAR,MEAN_MOTION_DOT,MEAN_MOTION_DDOT
SL-14 R/B,1990-018B,2026-07-23T04:41:28.666752,14.82237797,.001641,82.5212,96.4520,11.6136,348.5454,0,U,20511,999,94265,.34498E-4,.299E-5,0
HST,1990-037B,2026-07-23T06:09:58.917024,15.31122099,.0001928,28.4721,193.9755,181.0239,179.0353,0,U,20580,999,79410,.17776E-3,.5734E-4,0
SL-16 R/B,1990-046B,2026-07-23T11:53:34.024416,14.15029995,.001214,71.0001,12.6896,99.4872,260.7624,0,U,20625,999,86760,.13504E-3,.214E-5,0
COSMOS 2084,1990-055A,2026-07-23T07:27:40.138272,15.06243706,.0009132,62.7872,232.7820,324.8121,35.2375,0,U,20663,999,95674,.10635E-3,.1366E-4,0
SL-6 R/B(2),1990-055D,2026-07-23T19:34:10.744032,15.04117567,.0046437,62.7815,150.7228,10.2245,349.9788,0,U,20666,999,95866,.16018E-3,.2074E-4,0
SL-8 R/B,1990-078B,2026-07-23T12:22:50.717856,14.93721786,.0342616,82.9031,128.7766,275.1783,81.0431,0,U,20775,999,82954,.27503E-3,.9698E-4,0
SL-8 R/B,1991-006B,2026-07-23T14:13:02.623008,13.77510616,.0022912,82.9400,68.9468,17.7908,9.7821,0,U,21088,999,78278,.88472E-4,.103E-5,0
OKEAN-3,1991-039A,2026-07-23T10:20:30.691392,15.05466937,.0013174,82.5153,205.2304,222.7225,137.2979,0,U,21397,999,88545,.14329E-3,.2089E-4,0
COSMOS 2151,1991-042A,2026-07-23T19:17:53.890080,15.00531974,.0011236,82.4983,312.3437,324.9923,35.0561,0,U,21422,999,88360,.97642E-4,.1259E-4,0
SL-14 R/B,1991-042B,2026-07-23T16:22:35.820192,14.81921590,.0017693,82.4925,92.6719,149.6947,210.5295,0,U,21423,999,87321,.31533E-4,.274E-5,0
ERS-1,1991-050A,2026-07-23T12:24:36.118080,14.39537122,.003241,98.7796,226.1021,157.3572,202.9053,0,U,21574,999,83527,.81989E-4,.211E-5,0
ARIANE 40 R/B,1991-050F,2026-07-23T02:34:00.943104,14.42975161,.00037595,98.1857,251.1211,43.4344,316.7143,0,U,21610,999,83852,.77315614E-4,.217E-5,0
INTERCOSMOS 25,1991-086A,2026-07-23T02:24:06.323616,12.12249127,.14849351,82.6000,228.0776,184.8719,173.6395,0,U,21819,999,51309,.22782022E-3,.1174E-4,0
SL-8 R/B,1992-008B,2026-07-23T20:07:37.906752,13.75985411,.0036048,82.9283,166.5381,113.2212,263.3719,0,U,21876,999,72814,.1164E-3,.129E-5,0
SL-8 R/B,1992-020B,2026-07-23T13:29:39.575040,13.75549690,.0027748,82.9274,52.8327,279.0899,107.9806,0,U,21938,999,71981,-.29593E-4,-.14E-6,0
USA 81,1992-023A,2026-07-23T11:02:47.575968,14.32406481,.0001606,85.0047,53.0651,65.3633,294.7726,0,U,21949,999,11422,.42456E-4,.135E-5,0
COSMOS 2219,1992-076A,2026-07-23T16:35:02.406048,14.14105188,.0018713,71.0603,93.7642,344.9750,15.0814,0,U,22219,999,73760,-.13271E-3,-.3E-5,0
SL-16 R/B,1992-076B,2026-07-23T14:52:22.257120,14.16876828,.0014983,70.9990,262.0352,251.3192,269.5392,0,U,22220,999,74108,-.95248E-4,-.239E-5,0
COSMOS 2221,1992-080A,2026-07-23T20:17:42.737856,14.96623779,.001598,82.5054,148.6435,93.9610,266.3439,0,U,22236,999,80115,.13451E-3,.1562E-4,0
SL-16 R/B,1992-093B,2026-07-23T08:30:28.440576,14.15463136,.0002193,71.0209,79.4665,111.0790,249.0568,0,U,22285,999,73235,-.3498E-4,-.116E-5,0
COSMOS 2228,1992-094A,2026-07-23T20:02:20.950080,14.97695176,.001697,82.5183,106.9391,198.3643,161.6969,0,U,22286,999,79643,.12213E-3,.146E-4,0
SL-16 R/B,1993-016B,2026-07-23T16:36:09.620064,14.15317680,.0008372,71.0085,289.5356,122.6987,237.4944,0,U,22566,999,72141,.11547E-3,.177E-5,0
COSMOS 2242,1993-024A,2026-07-23T06:38:11.799744,14.97002828,.0015264,82.5203,137.0158,203.5609,156.4916,0,U,22626,999,80067,.12206E-3,.1433E-4,0
SL-16 R/B,1993-059B,2026-07-23T09:57:58.025088,14.17251654,.0017172,70.9902,84.9061,356.1337,3.9651,0,U,22803,999,69876,.12823E-3,.211E-5,0
ARIANE 40 R/B,1993-061H,2026-07-23T10:42:19.775808,14.32920808,.0009692,98.4800,270.5466,238.5210,121.5027,0,U,22830,999,71354,.6173E-4,.126E-5,0
COSMOS 2278,1994-023A,2026-07-23T12:39:54.554400,14.14396601,.0009169,71.0514,250.8918,193.3900,166.6981,0,U,23087,999,66401,.18181E-3,.301E-5,0
SL-16 R/B,1994-023B,2026-07-23T17:24:25.900128,14.15029708,.0001189,71.0002,145.1983,91.7101,268.4158,0,U,23088,999,66533,.18566E-3,.312E-5,0
SL-16 R/B,1994-074B,2026-07-23T13:11:41.664192,14.79529621,.0007705,97.6985,229.7539,130.3890,21.1561,0,U,23343,999,70733,.53476E-4,.351E-5,0
SL-16 R/B,1994-077B,2026-07-23T13:59:47.546016,14.15577414,.0004265,70.9822,66.5917,297.0458,63.0229,0,U,23405,999,63546,.17863E-3,.302E-5,0
ARIANE 40+ R/B,1995-021B,2026-07-23T04:33:24.883776,14.39850800,.0007984,98.4394,273.7417,96.2546,322.6166,0,U,23561,999,63874,.76458E-4,.197E-5,0
SL-16 R/B,1995-058B,2026-07-23T07:32:12.471936,14.15513533,.0014785,71.0203,255.5094,272.4810,87.4620,0,U,23705,999,58704,.13156E-3,.21E-5,0
